TDRS 3                  
1 19548U 88091B   24310.98976869 -.00000285  00000+0  00000+0 0  9999
2 19548  13.0548 344.9325 0038430 335.3784  32.9729  1.00271788119479
FLTSATCOM 8 (USA 46)    
1 20253U 89077A   24310.58691383 -.00000354  00000+0  00000+0 0  9997
2 20253  12.5918 354.6903 0005528 235.6894 151.6775  1.00262140254668
SKYNET 4C               
1 20776U 90079A   24305.25709142  .00000136  00000+0  00000+0 0  9999
2 20776  13.5323 353.8541 0003311 237.6698 294.5513  1.00279669124982
TDRS 5                  
1 21639U 91054B   24310.17901373 -.00000286  00000+0  00000+0 0  9996
2 21639  14.1451 358.0731 0006799 245.0502 163.9732  1.00269410121812
TDRS 6                  
1 22314U 93003B   24310.49000160 -.00000281  00000+0  00000+0 0  9997
2 22314  14.1681   1.3775 0010478 186.8487 347.5758  1.00273202116475
UFO 2 (USA 95)          
1 22787U 93056A   24310.86210914  .00000140  00000+0  00000+0 0  9993
2 22787  11.7000   6.6464 0004962 217.1999 160.7531  1.00271007112760
USA 99 (MILSTAR-1 1)    
1 22988U 94009A   24311.25023123 -.00000185  00000+0  00000+0 0  9993
2 22988  16.7302  33.9605 0002682 199.0707 173.0407  1.00274160 25759
UFO 4 (USA 108)         
1 23467U 95003A   24311.38729971 -.00000008  00000+0  00000+0 0  9993
2 23467   9.7119  15.0433 0005348 201.2660 141.5201  1.00270836109050
TDRS 7                  
1 23613U 95035B   24311.08788080 -.00000189  00000+0  00000+0 0  9994
2 23613  13.6233 352.2359 0022155  75.6971  94.4854  1.00270903107255
USA 115 (MILSTAR-1 2)   
1 23712U 95060A   24311.28915896 -.00000007  00000+0  00000+0 0  9990
2 23712  13.8548   8.0094 0003228 247.5515 134.5409  1.00273897 25753
INMARSAT 3-F1           
1 23839U 96020A   24310.67045081 -.00000282  00000+0  00000+0 0  9994
2 23839   9.3656  51.7488 0008763 169.0948 209.6462  1.00001667104678
INMARSAT 3-F2           
1 24307U 96053A   24311.00410397  .00000115  00000+0  00000+0 0  9999
2 24307   8.5140  59.6468 0006146 154.8960 216.4906  0.99993072103071
INMARSAT 3-F3           
1 24674U 96070A   24310.26819578 -.00000173  00000+0  00000+0 0  9991
2 24674   9.0344  55.0148 0008578 175.8409 188.3407  0.99985931102029
GALAXY 25 (G-25)        
1 24812U 97026A   24310.90772140  .00000041  00000+0  00000+0 0  9994
2 24812   5.9010  74.5257 0002959  55.9139 140.0153  0.99088232100388
AMC-3                   
1 24936U 97050A   24311.07063444 -.00000244  00000+0  00000+0 0  9993
2 24936   6.6962  70.6376 0002716 155.5298 133.0676  1.00270450 99558
USA 134                 
1 25019U 97065A   24311.25318201 -.00000047  00000+0  00000+0 0  9997
2 25019  12.0794  25.8915 0003857 235.6239 123.3226  1.00269088 25713
INMARSAT 3-F5           
1 25153U 98006B   24310.20236160 -.00000272  00000+0  00000+0 0  9999
2 25153   8.3640  58.8280 0005014 173.7401 191.2223  1.00268529 97990
ASTRA 2A                
1 25462U 98050A   24311.01079378  .00000085  00000+0  00000+0 0  9998
2 25462   5.6037  75.8005 0002972 152.3219 238.7169  1.00273315 95844
SKYNET 4E               
1 25639U 99009B   24310.42375723 -.00000019  00000+0  00000+0 0  9994
2 25639  11.7150  12.3125 0003052 207.4786 336.7014  1.00270870 94114
ABS-6                   
1 25924U 99053A   24310.47896589 -.00000101  00000+0  00000+0 0  9995
2 25924   0.0297 101.4840 0002517 145.1550 130.0117  1.00271501 91938
UFO 10 (USA 146)        
1 25967U 99063A   24311.06633443 -.00000171  00000+0  00000+0 0  9994
2 25967   9.5825  30.0140 0006526 211.0107 165.8775  1.00273701 91447
GALAXY 11 (G-11)        
1 26038U 99071A   24311.31403576 -.00000038  00000+0  00000+0 0  9995
2 26038   5.2404  77.5438 0000713 322.8125 285.0370  1.00271576 91187
USA 148                 
1 26052U 00001A   24311.46421823  .00000052  00000+0  00000+0 0  9992
2 26052  10.9417  36.7243 0002658 218.3176 138.5873  1.00270242 25722
ASIASTAR                
1 26107U 00016A   24310.84291067 -.00000317  00000+0  00000+0 0  9990
2 26107   7.7424  64.1649 0004911 165.5479 224.3117  1.00276019 90256
USA 149 (DSP 20)        
1 26356U 00024A   24311.29220612  .00000109  00000+0  00000+0 0  9991
2 26356  12.7243  15.8567 0000654  36.0881 293.5634  1.00274945 25704
TDRS 8                  
1 26388U 00034A   24311.29191435  .00000110  00000+0  00000+0 0  9999
2 26388  11.7562  36.0795 0006980 211.3793  96.0342  1.00276722 89288
INTELSAT 9 (IS-9)       
1 26451U 00043A   24310.86958087  .00000004  00000+0  00000+0 0  9998
2 26451   9.0941  54.4458 0003572 157.7483 212.7100  1.00271883 88958
NSS-11                  
1 26554U 00059A   24311.10586505  .00000042  00000+0  00000+0 0  9991
2 26554   0.5969  87.9110 0002874 130.8421  41.2072  1.00271696 88272
USA 153                 
1 26575U 00065A   24310.64109858 -.00000308  00000+0  00000+0 0  9997
2 26575  10.6015  39.9851 0002426 221.3176 149.3407  1.00276098 27034
AMC-6                   
1 26580U 00067A   24311.32929286  .00000120  00000+0  00000+0 0  9997
2 26580   0.0695  79.9751 0001682 131.4675 174.1683  1.00272108 88091
INTELSAT 1R (IS-1R)     
1 26608U 00072A   24310.93613131  .00000052  00000+0  00000+0 0  9993
2 26608   6.6047  71.1529 0008022 168.6528 183.9746  0.98976577 87731
ANIK F1                 
1 26624U 00076A   24311.40670337 -.00000046  00000+0  00000+0 0  9993
2 26624   3.6671  81.9389 0006054 115.7377 245.6865  1.00271370 87832
USA 157 (MILSTAR-2 2)   
1 26715U 01009A   24283.46123479  .00000116  00000+0  00000+0 0  9992
2 26715  10.8669  23.2493 0018413 170.9205 201.2594  0.99920289 25476
INTELSAT 10 (IS-10)     
1 26766U 01019A   24310.94108350  .00000010  00000+0  00000+0 0  9997
2 26766   7.6623  65.2289 0003659 172.6974 212.6418  1.00271018 86035
INTELSAT 901 (IS-901)   
1 26824U 01024A   24310.85098845 -.00000185  00000+0  00000+0 0  9999
2 26824   0.0622  84.4099 0000422 139.3947 100.6430  1.00271670 85687
USA 159 (DSP 21)        
1 26880U 01033A   24310.06031414 -.00000282  00000+0  00000+0 0  9991
2 26880  12.2265  20.3888 0001131 239.5095 117.1690  1.00281415 25714
INTELSAT 902 (IS-902)   
1 26900U 01039A   24311.26160532 -.00000266  00000+0  00000+0 0  9999
2 26900   4.6214  78.9124 0005052 158.7558 212.4162  1.00271972 84872
USA 164 (MILSTAR-2 3)   
1 27168U 02001A   24310.93178729  .00000115  00000+0  00000+0 0  9998
2 27168  10.4784  25.1418 0097362   2.1659  12.8737  1.00278279 25754
INTELSAT 904 (IS-904)   
1 27380U 02007A   24310.70763567 -.00000196  00000+0  00000+0 0  9995
2 27380   5.4362  76.1719 0002777 151.2098  43.3171  1.00271335 83183
DIRECTV 5 (TEMPO 1)     
1 27426U 02023A   24311.17341081 -.00000039  00000+0  00000+0 0  9995
2 27426   3.3645  82.6371 0003146 146.9892 128.5962  1.00271944 82409
INTELSAT 905 (IS-905)   
1 27438U 02027A   24311.06607378 -.00000167  00000+0  00000+0 0  9996
2 27438   5.2634  76.8109 0002510 150.6437 177.6493  1.00271512 82074
GALAXY 3C (G-3C)        
1 27445U 02030A   24311.19506255 -.00000135  00000+0  00000+0 0  9999
2 27445   2.2220  85.2623 0003054  62.9417 233.0919  1.00271351 82051
INTELSAT 906 (IS-906)   
1 27513U 02041A   24310.51180859  .00000032  00000+0  00000+0 0  9995
2 27513   4.2979  80.1447 0005822 172.2332  41.2522  1.00272774 81120
TDRS 10                 
1 27566U 02055A   24310.63013846  .00000103  00000+0  00000+0 0  9991
2 27566   9.8267  44.3490 0002602 282.3458 134.3251  1.00268687 80337
NIMIQ 2                 
1 27632U 02062A   24311.40661648 -.00000052  00000+0  00000+0 0  9992
2 27632   8.0651  62.8305 0006593 166.1586 214.3583  1.00272362 79973
USA 167                 
1 27691U 03008A   24310.40338176  .00000022  00000+0  00000+0 0  9990
2 27691   9.7806  48.3847 0002543 234.1215 146.1925  1.00272564   873
USA 169 (MILSTAR-2 4)   
1 27711U 03012A   24311.25411925 -.00000180  00000+0  00000+0 0  9992
2 27711  11.4488  34.3463 0095920   4.6586 250.6039  1.00273395 25746
ASIASAT 4               
1 27718U 03014A   24311.17172045 -.00000204  00000+0  00000+0 0  9996
2 27718   3.1925  83.1323 0003945 153.1132  19.0336  1.00271432 79024
HELLAS-SAT 2            
1 27811U 03020A   24310.56854154 -.00000064  00000+0  00000+0 0  9991
2 27811   5.8764  74.8397 0009213 160.8146   4.3528  1.00271660 36947
THURAYA-2               
1 27825U 03026A   24310.86523684  .00000142  00000+0  00000+0 0  9992
2 27825   7.9293  33.8916 0002138 213.6929 153.4944  1.00273414 78447
OPTUS C1                
1 27831U 03028B   24311.24484506 -.00000133  00000+0  00000+0 0  9994
2 27831   5.4041  76.4691 0005915 150.8817  62.5073  1.00272906 78421
GALAXY 23 (G-23)        
1 27854U 03034A   24311.40435758  .00000029  00000+0  00000+0 0  9992
2 27854   1.6727  87.0826 0002863 143.8018 199.9424  1.00271601 82653
USA 170                 
1 27875U 03040A   24310.50381559  .00000145  00000+0  00000+0 0  9990
2 27875   9.2399  53.2313 0001954 171.5116  25.9645  1.00276457 27081
GALAXY 13 (HORIZONS-1)  
1 27954U 03044A   24311.37618794  .00000149  00000+0  00000+0 0  9996
2 27954   0.0444  92.4158 0001917  82.5282 216.5969  1.00272788 77260
YAMAL 202               
1 28089U 03053A   24310.67444733 -.00000061  00000+0  00000+0 0  9992
2 28089   4.8490  78.0383 0006454 152.2038 221.4742  1.00272193 76788
UFO 11 (USA 174)        
1 28117U 03057A   24311.19806392 -.00000083  00000+0  00000+0 0  9993
2 28117   8.2920  36.2917 0004242 191.1905 324.7293  1.00271194 76523
USA 176 (DSP 22)        
1 28158U 04004A   24310.22827057 -.00000204  00000+0  00000+0 0  9990
2 28158  11.2541  30.1234 0000915 288.4079 256.0051  1.00272307 27028
ABS-4 (MOBISAT-1)       
1 28184U 04007A   24311.51200250  .00000057  00000+0  00000+0 0  9990
2 28184   4.5450  79.1149 0007037 161.5084  50.9224  1.00270379 75683
EUTELSAT 7A             
1 28187U 04008A   24311.40070861  .00000120  00000+0  00000+0 0  9996
2 28187   4.3283  78.9514 0005802 179.8514 152.3817  1.00269203 75688
AMC-11                  
1 28252U 04017A   24311.40626896 -.00000034  00000+0  00000+0 0  9999
2 28252   0.0457  66.0920 0002376 166.6016 208.5988  1.00273061 74814
